TRANSPORTER-11 OBJECT A 
1 60468U 24149A   26068.74646182  .00010774  00000+0  36054-3 0  9993
2 60468  97.3780 149.0949 0003110 191.0010 169.1164 15.31141332 86830
STARLINK-34913          
1 65369U 25190U   26068.55305506  .00026405  00000+0  90062-3 0  9993
2 65369  53.1587 168.8554 0000845  80.8012 279.3084 15.30195064 29731
